IRIDIUM 116             
1 43072U 17083C   25356.14249109  .00000243  00000+0  79698-4 0  9997
2 43072  86.3957  36.0006 0002536  92.5605 267.5881 14.34219207418793
IRIDIUM 130             
1 43073U 17083D   25356.11077672  .00000140  00000+0  42781-4 0  9998
2 43073  86.3964  36.2719 0002514  97.0019 263.1462 14.34219091418732
IRIDIUM 151             
1 43074U 17083E   25356.08540696  .00000012  00000+0 -29180-5 0  9994
2 43074  86.3960  36.0782 0002156  93.4157 266.7286 14.34217783418753
IRIDIUM 134             
1 43075U 17083F   25356.12347007  .00000271  00000+0  89683-4 0  9990
2 43075  86.3960  36.0681 0002347  98.0970 262.0492 14.34217473418729
IRIDIUM 137             
1 43076U 17083G   25355.85707294  .00000269  00000+0  89054-4 0  9997
2 43076  86.3963  36.2687 0002593  84.6206 275.5286 14.34219777418759
IRIDIUM 141             
1 43077U 17083H   25355.64142509  .00000072  00000+0  18532-4 0  9992
2 43077  86.3959  36.1993 0002079  97.8739 262.2693 14.34218252418729
IRIDIUM 153             
1 43078U 17083J   25356.01221495 -.00000042  00000+0 -22008-4 0  9999
2 43078  86.3965   4.5349 0001823  99.1284 261.0118 14.34217312419880
IRIDIUM 131             
1 43079U 17083K   25356.11712027 -.00000158  00000+0 -63627-4 0  9997
2 43079  86.3963  36.1747 0001991  92.1032 268.0391 14.34216890418724
